[{"OBJECT_NAME":"ORBITER SN3","OBJECT_ID":"2023-084AE","EPOCH":"2026-03-09T23:12:21.976128","MEAN_MOTION":15.32943891,"ECCENTRICITY":0.00075889,"INCLINATION":97.61,"RA_OF_ASC_NODE":206.6768,"ARG_OF_PERICENTER":331.7947,"MEAN_ANOMALY":28.2883,"EPHEMERIS_TYPE":0,"CLASSIFICATION_TYPE":"U","NORAD_CAT_ID":56960,"ELEMENT_SET_NO":999,"REV_AT_EPOCH":15228,"BSTAR":0.00032835432,"MEAN_MOTION_DOT":0.00010378,"MEAN_MOTION_DDOT":0},{"OBJECT_NAME":"STARLINK-32195","OBJECT_ID":"2024-144R","EPOCH":"2026-03-09T16:54:10.319040","MEAN_MOTION":15.30191375,"ECCENTRICITY":9.247e-5,"INCLINATION":53.159,"RA_OF_ASC_NODE":216.9022,"ARG_OF_PERICENTER":99.213,"MEAN_ANOMALY":260.8975,"EPHEMERIS_TYPE":0,"CLASSIFICATION_TYPE":"U","NORAD_CAT_ID":60440,"ELEMENT_SET_NO":999,"REV_AT_EPOCH":8931,"BSTAR":-7.527978e-6,"MEAN_MOTION_DOT":-5.82e-6,"MEAN_MOTION_DDOT":0}]
